BusinessEntityID,Name,AddressType,AddressLine1,AddressLine2,City,StateProvinceName,PostalCode,CountryRegionName
956,Finer Sales and Service,Main Office,#500-75 O'Connor Street,null,Ottawa,Ontario,K4B 1S2,Canada
780,Finer Riding Supplies,Main Office,#9900 2700 Production Way,null,Burnaby,British Columbia,V5A 4X1,Canada
1012,Stylish Department Stores,Main Office,1 Corporate Center Drive,null,Miami,Florida,33127,United States
482,Favorite Toy Distributor,Main Office,"1, place de la République",null,Paris,Seine (Paris),75017,France
1338,Sports Sales and Rental,Main Office,100 Fifth Drive,null,Millington,Tennessee,38054,United States
1424,Closeout Boutique,Main Office,1050 Oak Street,null,Seattle,Washington,98104,United States
1274,Self-Contained Cycle Parts Company,Main Office,"12, rue des Grands Champs",null,Verrieres Le Buisson,Essonne,91370,France
1958,Ultimate Bicycle Company,Main Office,"12, rue Lafayette",null,Morangis,Essonne,91420,France
1110,Local Sales and Rental,Main Office,1200 First Ave.,null,Joliet,Illinois,60433,United States
1262,Roadway Bicycle Supply,Main Office,"121, rue de Varenne",null,Courbevoie,Hauts de Seine,92400,France
1490,Engineered Bike Systems,Main Office,123 Camelia Avenue,null,Oxnard,California,93030,United States
704,Only Bikes and Accessories,Main Office,123 Union Square South,null,New York,New York,10007,United States
1480,Orange Bicycle Company,Main Office,123 W. Lake Ave.,null,Peoria,Illinois,61606,United States
642,Advanced Bike Components,Main Office,12345 Sterling Avenue,null,Irving,Texas,75061,United States
430,Center Cycle Shop,Shipping,1318 Lasalle Street,null,Bothell,Washington,98011,United States
1186,Basic Bike Company,Main Office,15 East Main,null,Port Orchard,Washington,98366,United States
932,Modular Cycle Systems,Shipping,165 North Main,null,Austin,Texas,78701,United States
1104,Outdoor Toy Store,Main Office,"18, rue de l´Esplanade",null,Aujan Mournede,Gers,32300,France
1170,Sample Bike Store,Shipping,2000 300th Street,null,Denver,Colorado,80203,United States
618,Petroleum Products Distributors,Main Office,20225 Lansing Ave,null,Montreal,Quebec,H1Y 2H7,Canada
502,Eighty Toy Stores,Main Office,2025 Greenwood Ct,null,Mcdonough,Georgia,30253,United States
1826,Executive Discount Store,Main Office,20500 S.W. 2512th Ave,null,Miami,Florida,33127,United States
1396,Racing Tours,Main Office,"21, avenue de la Gare",null,Sèvres,Hauts de Seine,92310,France
942,Wheels Inc.,Main Office,"21105, rue de Varenne",null,Paris,Seine (Paris),75013,France
1142,Major Amusement Company,Main Office,"2111, rue de Linois",null,Orly,Val de Marne,94310,France
866,Brand New Bikes,Main Office,"215, avenue Reille",null,Les Ulis,Essonne,91940,France
1154,Instant Cycle Store,Main Office,"21801, rue Léo Delibes",null,Colombes,Hauts de Seine,92700,France
1894,The Bike Outlet,Main Office,"22, rue du Départ",null,Pantin,Seine Saint Denis,93500,France
854,First Center,Main Office,"22, rue Lafayette",null,Pantin,Seine Saint Denis,93500,France
662,Fitness Toy Store,Main Office,220 Mercy Drive,null,Garland,Texas,75040,United States
530,Outdoor Distributors,Main Office,225 Hyde Rd,null,Farmington,Connecticut,06032,United States
822,Racing Bike Outlet,Main Office,225 South 314th Street,null,Federal Way,Washington,98003,United States
934,A Bike Store,Main Office,2251 Elliot Avenue,null,Seattle,Washington,98104,United States
1354,Ideal Components,Main Office,2-252 Beauchamp Road,Botany Bay Industrial Estate,Cloverdale,South Australia,6105,Australia
1936,Active Transport Inc.,Main Office,225200 Miles Ave.,null,North Randall,Ohio,44128,United States
676,Inexpensive Parts Shop,Main Office,2253 Miller Street,null,North Sydney,New South Wales,2055,Australia
350,Twin Cycles,Main Office,2253-217 Palmer Street,null,Darlinghurst,New South Wales,2010,Australia
1804,Cycle Clearance,Main Office,2255 254th Avenue Se,null,Albany,Oregon,97321,United States
556,Mechanical Products Ltd.,Main Office,22555 Paseo De Las Americas,null,San Diego,California,92102,United States
1888,Vintage Sport Boutique,Main Office,22571 South 2500 East,null,Idaho Falls,Idaho,83402,United States
622,Bikes and Motorbikes,Main Office,22580 Free Street,null,Toronto,Ontario,M4B 1V7,Canada
336,Imported and Domestic Cycles,Main Office,22589 West Craig Road,null,North Las Vegas,Nevada,89030,United States
914,Social Activities Club,Main Office,23025 S.W. Military Rd.,null,San Antonio,Texas,78204,United States
372,The Gear Store,Main Office,2345 North Freeway,null,Houston,Texas,77003,United States
1150,Certified Bicycle Supply,Main Office,2345 West Spencer Road,null,Lynnwood,Washington,98036,United States
514,Widget Bicycle Specialists,Main Office,23456 Calumet St,null,Clearwater,Florida,33755,United States
1238,Consolidated Messenger,Main Office,25 Danger Street West,Floor 7,Toronto,Ontario,M4B 1V5,Canada
624,Budget Toy Store,Main Office,25 Epping Road,null,Lavender Bay,New South Wales,2060,Australia
412,Gasless Cycle Shop,Main Office,25 First Canadian Place,null,Toronto,Ontario,M4B 1V5,Canada
1382,Shipping Specialists,Main Office,"25 Hartfield Road, Wimbledon",null,London,England,SW19 3RU,United Kingdom
740,Touring Services,Main Office,25 Myrtle Beach,null,Myrtle Beach,South Carolina,29577,United States
684,This Area Sporting Goods,Main Office,25 N State St,null,Chicago,Illinois,60610,United States
974,Leather and Vinyl Manufacturing,Main Office,250 E. County Line Rd.,null,Indianapolis,Indiana,46204,United States
1454,Recommended Bicycles,Main Office,250 Kingsbridge Garden Circle,null,Mississauga,Ontario,L5B 3V4,Canada
1874,Eighth Bike Store,Main Office,2500 N Serene Blvd,19th Floor,El Segundo,California,90245,United States
506,Third Bike Store,Main Office,2500 North Stemmons Freeway,null,Dallas,Texas,75201,United States
1418,"Health Spa, Limited",Main Office,2500 University Avenue,null,Toronto,Ontario,M4B 1V5,Canada
540,Metro Bike Works,Main Office,250000 Eight Mile Road,null,Detroit,Michigan,48226,United States
1002,Distant Inn,Main Office,25001 Montague Expressway,null,Milpitas,California,95035,United States
428,Finer Cycle Shop,Main Office,2500-622 5th Ave Sw,null,Calgary,Alberta,T2P 2G8,Canada
384,Seaside Bike Works,Main Office,2501 Miller Street,null,North Sydney,New South Wales,2055,Australia
574,Fifth Bike Store,Main Office,2502 Evergreen Ste E,null,Everett,Washington,98201,United States
1130,Efficient Cycling,Main Office,"250333 Southport Road, S.W.",null,Calgary,Alberta,T2P 2G8,Canada
494,Travel Systems,Main Office,2505 Gateway Drive,null,North Sioux City,South Dakota,57049,United States
1168,Optimal Bikes,Main Office,25050 S. Columbia Ave,null,Campbellsville,Kentucky,42718,United States
806,Certified Sports Supply,Main Office,250551 Shellbridge Way,null,Richmond,British Columbia,V6B 3P7,Canada
612,Metro Cycle Shop,Main Office,2507 Pacific Ave S,null,Tacoma,Washington,98403,United States
1068,Superior Hardware Distributors,Main Office,250775 SW Hillsdale Hwy,null,Beaverton,Oregon,97005,United States
542,Best o' Bikes,Main Office,250880 Baur Blvd,null,Saint Louis,Missouri,63103,United States
1294,Go-cart and Bike Specialists,Main Office,2509 W. Frankford,null,Carrollton,Texas,75006,United States
1228,District Mall,Main Office,25095 W. Florissant,null,Ferguson,Missouri,63135,United States
562,Custom Accessories Company,Main Office,251 Indell Lane,null,Brampton,Ontario,L6W 2T7,Canada
1892,West Side Mart,Main Office,251 The Metro Center,null,Wokingham,England,RG41 1QW,United Kingdom
1144,Retail Discount Store,Main Office,2510 Crew Court,null,Montreal,Quebec,H1Y 2H8,Canada
1876,Demand Distributors,Main Office,25102 Springwater,null,Wenatchee,Washington,98801,United States
648,Corner Bicycle Supply,Main Office,2511 Baker Road,null,Toronto,Ontario,M4B 1V7,Canada
1470,All Cycle Shop,Main Office,25111 228th St Sw,null,Bothell,Washington,98011,United States
1298,Racing Partners,Main Office,2512-410th Avenue S.W.,null,Calgary,Alberta,T2P 2G8,Canada
1288,Gear-Shift Bikes Limited,Main Office,2512-4th Ave Sw,null,Calgary,Alberta,T2P 2G8,Canada
1808,Transport Bikes,Main Office,25130 South State Street,null,Sandy,Utah,84070,United States
1296,Trailblazing Sports,Main Office,251340 E. South St.,null,Cerritos,California,90703,United States
526,Futuristic Bikes,Main Office,25136 Jefferson Blvd.,null,Culver City,California,90232,United States
1840,Top Sports Supply,Main Office,251420a 170th Street,null,Edmonton,Alberta,T5,Canada
1358,Leading Sales & Repair,Main Office,25149 Howard Dr,null,West Chicago,Illinois,60185,United States
1244,Finish and Sealant Products,Main Office,25150 El Camino Real,null,San Bruno,California,94066,United States
1856,Grown-up Bike Store,Main Office,25192 Princeton Rd.,null,Springdale,Ohio,45246,United States
1972,Mercantile Outlet,Main Office,2520 Flanders Road,null,Toronto,Ontario,M4B 1V4,Canada
706,Rental Gallery,Main Office,2520b Underwood Street,null,Lavender Bay,New South Wales,2060,Australia
1252,Up-To-Date Sports,Main Office,2521 McPherson Street,null,Markham,Ontario,L3S 3K2,Canada
848,Satin Finish Company,Main Office,25220 Airline Road,null,Corpus Christi,Texas,78404,United States
500,Toy Manufacturing Inc,Main Office,252345 8810th Avenue,null,Surrey,British Columbia,V3T 4W3,Canada
596,Metro Metals Co.,Main Office,2524 Barlby Road,null,London,England,W10 6BL,United Kingdom
720,Machines & Cycles Store,Main Office,25245 Rue Sherbrooke Ouest,null,Montreal,Quebec,H1Y 2H5,Canada
1000,Games and Sport Supply Company,Main Office,2525 Electrics Blvd.,null,Huntsville,Alabama,35801,United States
1082,First Cycle Store,Main Office,25250 N 90th St,null,Scottsdale,Arizona,85257,United States
584,Curbside Universe,Main Office,25264 E. 260th,null,Euclid,Ohio,44119,United States
1268,Out-of-the-Way Hotels,Main Office,25269 N. Wood Dale Rd,null,Wood Dale,Illinois,60191,United States
714,Discount Bicycle Specialists,Main Office,25269 Wood Dale Rd.,null,Wood Dale,Illinois,60191,United States
1246,Finer Parts Shop,Main Office,2526a Tri-Lake Blvd Ne,null,Kirkland,Washington,98033,United States
1482,Riding Associates,Main Office,2528 Meridian E,null,Puyallup,Washington,98371,United States
324,Valley Toy Store,Main Office,252851 Rowan Place,null,Richmond,British Columbia,V6B 3P7,Canada
1170,Sample Bike Store,Main Office,2530 South Colorado Blvd.,null,Denver,Colorado,80203,United States
1282,Kickstands and Accessories Company,Main Office,25300 Biddle Road,null,Medford,Oregon,97504,United States
598,Sheet Metal Manufacturing,Main Office,25306 Harvey Rd.,null,College Station,Texas,77840,United States
1056,General Department Stores,Main Office,"253131 Lake Frasier Drive, Office No. 2",null,Calgary,Alberta,T2P 2G8,Canada
1006,Economic Parts Supply,Main Office,2532 Fairgrounds Road,null,West Kingston,Rhode Island,02892,United States
382,Work and Play Association,Main Office,2533 Eureka Rd.,null,Southgate,Michigan,48195,United States
464,Odometers and Accessories Company,Main Office,"253711 Mayfield Place, Unit 150",null,Richmond,British Columbia,V6B 3P7,Canada
1796,Professional Containers and Packaging Co.,Main Office,253731 West Bell Road,null,Surprise,Arizona,85374,United States
632,Sports Commodities,Main Office,253950 N.E. 178th Place,null,Woodinville,Washington,98072,United States
346,Designated Distributors,Main Office,254 Colonnade Road,null,Nepean,Ontario,K2J 2W5,Canada
744,First Department Stores,Main Office,2540 Dell Range Blvd,null,Cheyenne,Wyoming,82001,United States
826,Bike Goods ,Main Office,254075 Biscayne Blvd.,null,North Miami Beach,Florida,33162,United States
592,Retail Mall,Main Office,254480 River Rd,null,Richmond,British Columbia,V6B 3P7,Canada
1406,Professional Cyclists,Main Office,2545 King Street West,null,Toronto,Ontario,M4B 1V7,Canada
1428,Spoke Manufacturers,Main Office,2545 N.W. 107th Ave.,null,Miami,Florida,33127,United States
1886,Trendy Department Stores,Main Office,25472 Marlay Ave,null,Fontana,California,92335,United States
1038,Bike Part Wholesalers,Main Office,254a Baker Street,Botany,Sydney,New South Wales,1002,Australia
894,Jumbo Bikes,Main Office,254a James Street Botany,null,Malabar,New South Wales,2036,Australia
1272,Outdoor Aerobic Systems Company,Main Office,255 Irving Street,null,London,England,C2H 7AU,United Kingdom
1350,Every Bike Shop,Main Office,2550 High Street,null,La Vergne,Tennessee,37086,United States
1180,Purple Bicycle Company,Main Office,2550 Middlefield Road,null,Scarborough,Ontario,M1V 4M2,Canada
1218,Fad Outlet,Main Office,2550 Ne Sandy Blvd,null,Portland,Oregon,97205,United States
986,Metro Manufacturing,Main Office,2550 Signet Drive,null,Weston,Ontario,M9V 4W3,Canada
1946,Swift Cycles,Main Office,25500 Old Spanish Trail,null,Houston,Texas,77003,United States
338,Systematic Sales,Main Office,2551 East Warner Road,null,Gilbert,Arizona,85233,United States
750,Custom Sales and Service,Main Office,255117 - 101 Avenue,null,Surrey,British Columbia,V3T 4W3,Canada
438,First-Rate Outlet,Main Office,25537 Hillside Avenue,null,Victoria,British Columbia,V8V,Canada
726,Westside Cycle Store,Main Office,25550 Executive Dr,null,Elgin,Illinois,60120,United States
794,Rewarding Activities Company,Main Office,25575 The Queensway,null,Etobicoke,Ontario,M9W 3P3,Canada
732,Urban Sports Emporium,Main Office,2560 Bay Street,null,Toronto,Ontario,M4B 1V7,Canada
804,Downtown Hotel,Main Office,2560 E. Newlands Dr,null,Fernley,Nevada,89408,United States
1308,More Bikes!,Main Office,25600 E St Andrews Pl,null,Santa Ana,California,92701,United States
792,Rally Day Mall,Main Office,2561 Nw 8410th Avenue,null,Miami,Florida,33127,United States
1098,Strenuous Exercise Shop,Main Office,25620 Firestone Boulevard,null,Norwalk,California,90650,United States
616,Tread Industries,Main Office,25631 Florida Mall Ave.,null,Orlando,Florida,32804,United States
840,Roadway Supplies,Main Office,2564 S. Redwood Rd.,null,Riverton,Utah,84065,United States
1314,Volume Bike Sellers,Main Office,2565-175 Mitchell Road,null,Alexandria,New South Wales,2015,Australia
1124,Tires and Tubes,Main Office,25708 Dell Range Blvd.,null,Cheyenne,Wyoming,82001,United States
1292,Family Entertainment Center,Main Office,25718 Se Sunnyside Rd,null,Clackamas,Oregon,97015-6403,United States
852,Original Bicycle Supply Company,Main Office,2573 Dufferin Street,null,Toronto,Ontario,M4B 1V5,Canada
1060,Operational Manufacturing,Main Office,"25730, boul. St-Régis",null,Dorval,Quebec,H9P 1H1,Canada
1122,Tubeless Tire Company,Main Office,2574 Milton Park,null,Oxford,England,OX14 4SE,United Kingdom
490,Commuter Bicycle Store,Main Office,2575 Bloor Street East,null,Toronto,Ontario,M4B 1V6,Canada
1242,Field Trip Store,Main Office,2575 Rocky Mountain Ave.,null,Loveland,Colorado,80537,United States
1290,Frugal Bike Shop,Main Office,2575 West 2700 South,null,Salt Lake City,Utah,84101,United States
458,Metallic Paint and Overcoat Co,Main Office,25751 University Drive,null,Vista,California,92084,United States
1328,Front Sporting Goods,Main Office,257700 Ne 76th Street,null,Redmond,Washington,98052,United States
690,Kids and Adults Cycle Shop,Main Office,258 Berry Street,null,North Sydney,New South Wales,2055,Australia
1192,Non-Slip Pedal Company,Main Office,258 King Street East,null,Toronto,Ontario,M4B 1V7,Canada
610,Mountain Emporium,Main Office,25800 Gallitin Rd.,null,Nashville,Tennessee,37203,United States
1258,Scooters and Bikes Store,Main Office,258101 Nw Evergreen Parkway,null,Beaverton,Oregon,97005,United States
964,Year-Round Sports,Main Office,2583 Se 272nd St,null,Kent,Washington,98031,United States
1176,Eleventh Bike Store,Main Office,25850 Post Road,null,Westport,Connecticut,06880,United States
1446,Curbside Sporting Goods,Main Office,25871 North Main Street,null,Walnut Creek,California,94596,United States
418,Transportation Options,Main Office,25900-700-9th Ave S.W.,null,Calgary,Alberta,T2P 2G8,Canada
472,Safe Cycles Shop,Main Office,25915 140th Ave Ne,null,Bellevue,Washington,98004,United States
332,Family's Favorite Bike Shop,Main Office,25981 College Street,null,Montreal,Quebec,H1Y 2H5,Canada
1016,Central Discount Store,Main Office,259826 Russell Rd. South,null,Kent,Washington,98031,United States
808,Registered Cycle Store,Main Office,"26, rue Saint Denis",null,Orleans,Loiret,45000,France
472,Safe Cycles Shop,Shipping,2681 Eagle Peak,null,Bellevue,Washington,98004,United States
332,Family's Favorite Bike Shop,Shipping,26910 Indela Road,null,Montreal,Quebec,H1Y 2H5,Canada
1384,Finer Sporting Goods,Main Office,"28, avenue des Champs-Elysées",null,Croix,Nord,59170,France
1212,Road Way Sales and Rental,Main Office,2900 - 25055 Dunning Street,null,Vancouver,British Columbia,V7L 4J4,Canada
1866,Gears and Parts Company,Main Office,2nd Floor,55 Lavender Street,Milsons Point,New South Wales,2061,Australia
594,Racing Store,Main Office,"30, avenue de l´ Union Centrale",null,Les Ulis,Essonne,91940,France
668,General Cycle Storehouse,Main Office,"30025 Wayburne Drive, Suite 275",null,Burnaby,British Columbia,V5G 4W1,Canada
1412,City Manufacturing,Main Office,3025 E Waterway Blvd,null,Shelton,Washington,98584,United States
484,World Bike Discount Store,Main Office,3065 Santa Margarita Parkway,null,Trabuco Canyon,California,92679,United States
1232,Mail Market,Main Office,308-3250 Casting Road,null,York,England,Y024 1GF,United Kingdom
1234,Spare Parts Co.,Main Office,"3101, avenue de Malakoff",null,Paris,Seine (Paris),75003,France
1028,Progressive Sports,Main Office,3207 S Grady Way,null,Renton,Washington,98055,United States
900,Basic Sports Equipment,Main Office,3250 Baldwin Park Blvd,null,Baldwin Park,California,91706,United States
880,The Bike Shop,Main Office,3250 South Meridian,null,Puyallup,Washington,98371,United States
1090,General Associates,Main Office,32525 Hollywood Blvd.,null,Hollywood,Florida,33021,United States
1276,Metal Clearing House,Main Office,3255 Front Street West,null,Toronto,Ontario,M4B 1V6,Canada
1062,Online Bike Warehouse,Main Office,"32605 West 252 Mile Road, Suite 250",null,Aurora,Ontario,L4G 7N6,Canada
962,Spa and Exercise Outfitters,Main Office,"33, rue Georges-Clémenceau",null,Cergy,Val d'Oise,95000,France
586,Alternative Vehicles,Main Office,3307 Evergreen Blvd,Ste 1071,Washougal,Washington,98671,United States
620,Tandem Bicycle Store,Main Office,3333 Micro Drive,null,Millington,Tennessee,38054,United States
1380,Impervious Paint Company,Main Office,"3383, rue Lamarck",null,Paris,Seine (Paris),75007,France
1474,Cycles Sales and Repair,Main Office,"3387, rue Marbeuf",null,Bobigny,Seine Saint Denis,93000,France
1118,Synthetic Materials Manufacturing,Main Office,3390 South 23rd St.,null,Tacoma,Washington,98403,United States
938,Two Bike Shops,Main Office,35525-9th Street Sw,null,Puyallup,Washington,98371,United States
628,Ace Bicycle Supply,Main Office,"36, avenue de la Gare",null,Paris,Seine (Paris),75019,France
1114,Community Department Stores,Main Office,"3639, rue des Grands Champs",null,Boulogne-sur-Mer,Pas de Calais,62200,France
1800,Hiatus Bike Tours,Main Office,"3833, boulevard Beau Marchais",null,Paris,Seine (Paris),75009,France
1986,Recreation Toy Store,Main Office,"39, avenue des Laurentides",null,Paris La Defense,Hauts de Seine,92081,France
590,Full Sports Supply,Main Office,"39, route de Marseille",null,Paris,Seine (Paris),75016,France
926,Unique Bikes,Main Office,3900 S. 997th St.,null,Milwaukee,Wisconsin,53202,United States
1116,Area Sheet Metal Supply,Main Office,399 Clearing Green,null,London,England,EC1R 0DU,United Kingdom
1182,New and Used Bicycles,Main Office,3990 Silas Creek Parkway,null,Winston-Salem,North Carolina,27104,United States
644,Aerobic Exercise Company,Main Office,39933 Mission Oaks Blvd,null,Camarillo,California,93010,United States
680,Principal Bicycle Supply,Main Office,39950 Airport Blvd.,null,Mobile,Alabama,36602,United States
760,Handy Bike Services,Main Office,399700 John R. Rd.,null,Madison Heights,Michigan,48071,United States
626,Camping and Sports Store,Main Office,400-25155 West Pender St,null,Vancouver,British Columbia,V7L 4J4,Canada
1982,Mail-Order Outlet,Main Office,409 S. Main Ste. 25,null,Ellensburg,Washington,98926,United States
1426,Bicycle Merchandise Warehouse,Main Office,409 Santa Monica Blvd.,null,Santa Monica,California,90401,United States
674,Imaginary Toys,Main Office,4210 E Sprague Ave,null,Spokane,Washington,99202,United States
300,Nationwide Supply,Main Office,4250 Concord Road,null,Rhodes,New South Wales,2138,Australia
772,Professional Sporting Goods,Main Office,42500 South Franklin Street,null,Michigan City,Indiana,46360,United States
702,Local Hardware Factory,Main Office,42500 W 76th St,null,Chicago,Illinois,60610,United States
1884,Retirement Activities Association,Main Office,42500 West Park Drive,null,Atlanta,Georgia,30308,United States
518,Latest Sports Equipment,Main Office,4251 First Avenue,null,Seattle,Washington,98104,United States
820,Weekend Tours,Main Office,42522 Northrupp,null,Fort Wayne,Indiana,46807,United States
1046,Better Bike Shop,Main Office,42525 Austell Road,null,Austell,Georgia,30106,United States
524,Lots of Bikes Storehouse,Main Office,4255 East Lies Road,null,Carol Stream,Illinois,60188,United States
920,General Riding Supplies,Main Office,"43251 Viking Way, Unit 130",null,Richmond,British Columbia,V6B 3P7,Canada
1184,Separate Parts Corporation,Main Office,440 West Huntington Dr.,null,Monrovia,California,91016,United States
960,The Showroom,Main Office,4400 March Road,null,Kanata,Ontario,K2L 1H5,Canada
860,Sleek Bikes ,Main Office,44025 W. Empire,null,Denby,South Dakota,57716,United States
1348,Healthy Activity Store,Main Office,4460 Newport Center Drive,null,Newport Beach,California,92625,United States
756,Grand Cycle Store,Main Office,44606 N Division St,null,Spokane,Washington,99202,United States
778,One-Piece Handle Bars,Main Office,4496 Barnes Crossing Rd.,null,Tupelo,Mississippi,38804,United States
580,Farthest Bike Store,Main Office,45259 Canada Way,null,Burnaby,British Columbia,V5G 4S4,Canada
1980,Great Bicycle Supply,Main Office,455 256th St.,null,Moline,Illinois,61265,United States
1054,Eastside Cycle Shop,Main Office,45671 Queens Road Ct.,null,Melbourne,Victoria,3000,Australia
824,Utilitarian Sporting Goods,Main Office,4635 S. Harrison Blvd.,null,Ogden,Utah,84401,United States
1440,Variety Cycling,Main Office,46-44 Albemarle Street,null,London,England,W1X3SE,United Kingdom
1188,"Fabrikam Inc., West",Main Office,46460 West Oaks Drive,null,Novi,Michigan,48375,United States
682,Thrilling Bike Tours,Main Office,4660 Rodeo Road,null,Santa Fe,New Mexico,87501,United States
1828,Major Cycling,Main Office,46990 Viking Way,null,Richmond,British Columbia,V6B 3P7,Canada
558,Commendable Bikes,Main Office,4781 Highway 95,null,Sandpoint,Idaho,83864,United States
1026,Metropolitan Sports Supply,Main Office,482505 Warm Springs Blvd.,null,Fremont,California,94536,United States
398,Grand Bicycle Stores,Main Office,48255 I-10 E. @ Eastpoint Blvd.,null,Baytown,Texas,77520,United States
774,Rugged Bikes,Main Office,48995 Evergreen Wy.,null,Everett,Washington,98201,United States
1304,Authorized Bike Sales and Rental,Main Office,490 Ne 4th St,null,Renton,Washington,98055,United States
1138,Roving Sports,Main Office,4927 S Meridian Ave Ste D,null,Puyallup,Washington,98371,United States
882,Safe Toys,Main Office,49925 Crestview Drive N.E.,null,Rio Rancho,New Mexico,87124,United States
1798,One Bike Company,Main Office,5 place Ville-Marie,null,Montreal,Quebec,H1Y 2H7,Canada
982,Steel Inc.,Main Office,"5, place de la Concorde",null,Colombes,Hauts de Seine,92700,France
936,Journey Sporting Goods,Main Office,509 Nafta Boulevard,null,Laredo,Texas,78040,United States
1842,Racing Sales and Service,Main Office,"510, avenue de Villiers",null,Orleans,Loiret,45000,France
968,Resident Cycle Shop,Main Office,5230a Hwy. 2553,null,Hixson,Tennessee,37343,United States
1256,Specialty Sports Store,Main Office,52500 Liberty Way,null,Fort Worth,Texas,76102,United States
1264,Refined Department Stores,Main Office,5250-505 Burning St,null,Vancouver,British Columbia,V7L 4J4,Canada
1022,Sharp Bikes,Main Office,52560 Free Street,null,Toronto,Ontario,M4B 1V7,Canada
1830,Getaway Inn,Main Office,"54, avenue des Ternes",null,Saint Ouen,Loir et Cher,41100,France
930,Associated Bikes,Main Office,5420 West 22500 South,null,Salt Lake City,Utah,84101,United States
700,Fleet Bikes,Main Office,54254 Pacific Ave.,null,Stockton,California,95202,United States
998,Greater Bike Store,Main Office,55 Lakeshore Blvd East,null,Toronto,Ontario,M4B 1V6,Canada
1916,Active Life Toys,Main Office,55 Standish Court,null,Mississauga,Ontario,L5B 3V4,Canada
478,Golf and Cycle Store,Main Office,5500 Grossmont Center Drive,null,La Mesa,California,91941,United States
688,Plastic Products Manufacturers,Main Office,5525 Glenferrie Road,null,Hawthorne,Queensland,4171,Australia
954,Futuristic Sport Distributors,Main Office,5525 South Hover Road,null,Longmont,Colorado,80501,United States
660,Sports Merchandise,Main Office,558 S 6th St,null,Klamath Falls,Oregon,97601,United States
712,Another Sporting Goods Company,Main Office,5650 West 88th Ave.,null,Westminster,Colorado,80030,United States
640,Western Bike Supplies,Main Office,566 S. Main,null,Cedar City,Utah,84720,United States
442,Another Bicycle Company,Main Office,567 Sw Mcloughlin Blvd,null,Milwaukie,Oregon,97222,United States
946,Racing Supply Distributors,Main Office,"57, rue des Vendangeurs",null,Roissy en Brie,Seine et Marne,77680,France
466,Scratch-Resistant Finishes Company,Main Office,5700 Explorer Drive,null,Mississauga,Ontario,L4W 5J3,Canada
1306,Two-Seater Bikes,Main Office,5700 Legacy Dr,null,Plano,Texas,75074,United States
294,Professional Sales and Service,Main Office,57251 Serene Blvd,null,Van Nuys,California,91411,United States
468,Topnotch Bikes,Main Office,574 Atlanta Highway,null,Montgomery,Alabama,36104,United States
1340,Cycle Merchants,Main Office,575 Rue St Amable,null,Quebec,Quebec,G1R,Canada
728,Wholesale Bikes,Main Office,58 Teed Drive,null,Randolph,Massachusetts,02368,United States
1140,Express Bike Services,Main Office,"586 Fulham Road,",null,London,England,SW6 SBY,United Kingdom
1838,Valley Bicycle Distributors,Main Office,5867 Sunrise Boulevard,null,Citrus Heights,California,95610,United States
812,Sundry Sporting Goods,Main Office,595 Burning Street,null,Vancouver,British Columbia,V7L 4J4,Canada
630,Rural Department Store,Main Office,5967 W Las Positas Blvd,null,Pleasanton,California,94566,United States
896,Quick Delivery Service,Main Office,5990 Avebury Road,null,Mississauga,Ontario,L5B 3V4,Canada
634,Riverside Company,Main Office,5998 E Lorain,null,Oberlin,Ohio,44074,United States
1466,Seats and Saddles Company,Main Office,"5th Floor, 79 Place D'armes",null,Kingston,Ontario,7L,Canada
786,Outdoor Equipment Store,Main Office,6 Cotton Road,null,Nashua,New Hampshire,03064,United States
436,Second Bike Shop,Main Office,6 Lord Street,null,Matraville,New South Wales,2036,Australia
868,Central Bicycle Specialists,Main Office,"6 The Farm, Liberty Road",null,Maidenhead,England,SL67RJ,United Kingdom
1324,Metro Sports Equipment,Main Office,"6, rue des Pyrenees",null,Saint Ouen,Loir et Cher,41100,France
1952,Large Bike Shop,Main Office,600 Boul. Rene-levesque Ouest,null,Montreal,Quebec,H1Y 2H7,Canada
552,Requisite Part Supply,Main Office,600 Slater Street,null,Ottawa,Ontario,K4B 1S2,Canada
1014,Bike World,Main Office,60025 Bollinger Canyon Road,null,San Ramon,California,94583,United States
1392,Discount Tours,Main Office,603 Gellert Blvd,null,Daly City,California,94015,United States
886,Our Sporting Goods Store,Main Office,6030 Conroy Road,null,Ottawa,Ontario,K4B 1S3,Canada
1148,A Great Bicycle Company,Main Office,6030 Robinson Road,null,Jefferson City,Missouri,65101,United States
722,Pedals Warehouse,Main Office,6055 Shawnee Industrial Way,null,Suwanee,Georgia,30024,United States
1360,Main Bicycle Services,Main Office,60750 San Clemente,null,Hayward,California,94541,United States
1368,Reliable Retail Center,Main Office,609 Evans Avenue,null,Toronto,Ontario,M4B 1V4,Canada
1222,Township Inn,Main Office,"61, rue Henri Gagnon",null,Les Ulis,Essonne,91940,France
1400,Finished Parts Shop,Main Office,"62, route de Marseille",null,Suresnes,Hauts de Seine,92150,France
604,Mechanical Sports Center,Main Office,6225 Glenway Ave.,null,Cincinnati,Ohio,45202,United States
1172,Extras Sporting Goods,Main Office,625 W Jackson Blvd. Unit 2502,null,Chicago,Illinois,60610,United States
1970,Permanent Finish Products,Main Office,62500 Neil Road,null,Reno,Nevada,89502,United States
1316,Wheelsets Storehouse,Main Office,63 Badgers Island West,null,Kittery,Maine,03904,United States
1364,Tandem Sales and Service,Main Office,63 Free St.,null,Toronto,Ontario,M4B 1V4,Canada
1280,Largest Bike Store,Main Office,63 W Monroe,null,Chicago,Illinois,60610,United States
510,Bikes for Two,Main Office,63 West Beaver Creek,null,Richmond Hill,Ontario,L4E 3M5,Canada
1196,Weekend Bike Tours,Main Office,630 N. Capitol Ave.,null,San Jose,California,95112,United States
1948,Classic Cycle Store,Main Office,630 Oldgate Lane,null,Milford,Connecticut,06460,United States
1312,National Manufacturing,Main Office,630 University Avenue,null,Toronto,Ontario,M4B 1V7,Canada
842,Sensational Discount Store,Main Office,6333 Cloverleaf Parkway,null,Kannapolis,North Carolina,28081,United States
1352,Grand Industries,Main Office,6333 Cote Vertu,null,Montreal,Quebec,H1Y 2H7,Canada
928,Rural Cycle Emporium,Main Office,6388 Lake City Way,null,Burnaby,British Columbia,V5A 3A6,Canada
1004,Finer Mart,Main Office,640 South 994th St. W.,null,Billings,Montana,59101,United States
1224,Acceptable Sales & Service,Main Office,"6400, 888 - 3rd Avenue",null,Calgary,Alberta,T2P 2G8,Canada
2051,A Bicycle Association,Main Office,6405 Erie Blvd. Hills Plaza,null,De Witt,New York,13214,United States
1216,Beneficial Exercises and Activities,Main Office,6425 Nw Loop 410,null,San Antonio,Texas,78204,United States
784,Online Bike Catalog,Main Office,65 Epping Rd,null,Lavender Bay,New South Wales,2060,Australia
456,Uncompromising Quality Co,Main Office,65 Epping Road,null,North Ryde,New South Wales,2113,Australia
1156,Leisure Activities,Main Office,65 Gamelin Street,null,Hull,Quebec,8Y,Canada
1942,Functional Store North,Main Office,650 E Altamonte Dr,null,Altamonte Springs,Florida,32701,United States
316,Fun Toys and Bikes,Main Office,6500 East Grant Road,null,Tucson,Arizona,85701,United States
980,Wholesale Parts,Main Office,655-4th Ave S.W.,null,Calgary,Alberta,T2P 2G8,Canada
814,Excellent Riding Supplies,Main Office,"6555 Quince Road, Suite 2025",null,Memphis,Tennessee,38103,United States
1416,Pedal Systems Company,Main Office,656 Cox Creek Pkwy.,null,Florence,Alabama,35630,United States
1994,World of Bikes,Main Office,660 Lindbergh,null,Saint Louis,Missouri,63103,United States
1040,Family Cycle Store,Main Office,"660 Saint-Jacques, Bureau 400",null,Montreal,Quebec,H1Y 2H8,Canada
498,Moderately-Priced Bikes Store,Main Office,67 Rainer Ave S,null,Renton,Washington,98055,United States
1402,Consumer Equipment,Main Office,"67 Vincent Square, Victoria",null,London,England,SW1P 2NU,United Kingdom
864,Price-Cutter Discount Bikes,Main Office,6700 Boul Taschereau,null,Brossard,Quebec,J4Z 1C5,Canada
844,Future Bikes,Main Office,"67255 - 8th Street N.E., Suite 350",null,Calgary,Alberta,T2P 2G8,Canada
454,Tire Company,Main Office,675 East Ave.,null,Warwick,Rhode Island,02889,United States
1128,Retail Sporting Goods,Main Office,6753 Howard Hughes Parkway,null,Las Vegas,Nevada,89106,United States
1254,Mountain Bike Center,Main Office,6756 Mowry,null,Newark,California,94560,United States
782,Neighborhood Store,Main Office,6777 Kingsway,null,Burnaby,British Columbia,V5H 3Z7,Canada
560,Online Bike Sellers,Main Office,678 Eastman Ave.,null,Midland,Michigan,48640,United States
406,Kickstand Sellers,Main Office,6789 Warren Road,null,Westland,Michigan,48185,United States
1300,Perfect Toys,Main Office,"68081, place du Tertre",null,Colomiers,Garonne (Haute),31770,France
1286,Neighborhood Bicycle Storehouse,Main Office,"69, boulevard Tremblay",null,Roncq,Nord,59223,France
302,Area Bike Accessories,Main Office,6900 Sisk Road,null,Modesto,California,95354,United States
1344,Exotic Bikes,Main Office,6900 William Richardson Ct.,null,South Bend,Indiana,46601,United States
908,General Bike Corporation,Main Office,69251 Creditview Road,null,Mississauga,Ontario,L5B 3V4,Canada
1858,Bicycle Lines Distributors,Main Office,6996 South Lindbergh,null,Saint Louis,Missouri,63103,United States
1442,Accessories Network,Main Office,"699bis, rue des Peupliers",null,Paris,Seine (Paris),75008,France
1488,City Cycling,Main Office,6th Floor 5250 Main Street,null,Winnipeg,Manitoba,R3,Canada
678,Nuts and Bolts Mfg.,Main Office,6th Floor Ferguson Block,null,Toronto,Ontario,M4B 1V7,Canada
1112,Economy Center,Main Office,"6th Floor, 25st Canadian Place",null,Toronto,Ontario,M4B 1V5,Canada
1964,Extended Tours,Main Office,"7 Garden House Cloisters, 8 Batters",null,London,England,SW8 4BG,United Kingdom
1208,Little Sports Center,Main Office,7 Pioneer Business Park,null,York,England,Y03 4TN,United Kingdom
374,Immense Manufacturing Company,Main Office,70 N.W. Plaza,null,Saint Ann,Missouri,63074,United States
380,Workout Emporium,Main Office,700 Bureau Road,null,Montreal,Quebec,H1Y 2H7,Canada
1810,Sellers of Cycles,Main Office,700 Se Sunnyside Road,null,Clackamas,Oregon,97015,United States
1078,Eastside Parts Shop,Main Office,7000 Victoria Park Avenue,null,Toronto,Ontario,M4B 1V4,Canada
802,Successful Sales Company,Main Office,7009 Sw Hall Blvd.,null,Tigard,Oregon,97223,United States
990,Locks Company,Main Office,70259 West Sunnyview Ave,null,Visalia,California,93291,United States
434,Country Parts Shop,Main Office,"7033, rue de Longchamp",null,Les Ulis,Essonne,91940,France
892,Coho Sports,Main Office,705 SE Mall Parkway,null,Everett,Washington,98201,United States
504,Economy Bikes Company,Main Office,72502 Eastern Ave.,null,Bell Gardens,California,90201,United States
1992,Totes & Baskets Company,Main Office,72540 Blanco Rd.,null,San Antonio,Texas,78204,United States
1832,Downhill Bicycle Specialists,Main Office,725a The Arches,null,Berks,England,SL4 1RH,United Kingdom
1346,Fitness Hotel,Main Office,74400 France Avenue South,null,Edina,Minnesota,55436,United States
762,Friendly Bike Shop,Main Office,750 Lakeway Dr,null,Bellingham,Washington,98225,United States
1864,Plastic Parts Company,Main Office,750 Philip Street,null,Waterloo,Ontario,N2V,Canada
1422,Fashionable Department Stores,Main Office,7505 Commercial Dr.,null,New Hartford,New York,13413,United States
1458,Alpine Ski House,Main Office,7505 Laguna Boulevard,null,Elk Grove,California,95624,United States
1910,Wingtip Toys,Main Office,755 Columbia Ctr Blvd,null,Kennewick,Washington,99337,United States
1890,Travel Sports,Main Office,755 Nw Grandstand,null,Issaquah,Washington,98027,United States
1230,Fitness Supplies,Main Office,755 W Washington Ave Ste D,null,Sequim,Washington,98382,United States
508,Atypical Bike Company,Main Office,"7551, avenue Foch",null,Paris,Seine (Paris),75010,France
1206,Capable Sales and Service,Main Office,765 Delridge Way Sw,null,Seattle,Washington,98104,United States
724,Two Wheels Cycle Store,Main Office,77 Beale Street,Room 99767c,San Francisco,California,94109,United States
512,Metal Processing Company,Main Office,770 Notre Datme Quest Bureau 800,null,Montreal,Quebec,H1Y 2H7,Canada
1930,Reliable Brake Systems,Main Office,770 South Point Dr,null,Memphis,Tennessee,38103,United States
1080,Exchange Parts Inc.,Main Office,7700 Green Road,null,Raleigh,North Carolina,27603,United States
874,Real Sporting Goods,Main Office,7709 West Virginia Avenue,null,Phoenix,Arizona,85004,United States
766,Extreme Toy Store,Main Office,7725 Luddington Lane,null,Birmingham,Alabama,35203,United States
1814,Fitness Department Stores,Main Office,7750 E Marching Rd,null,Scottsdale,Arizona,85257,United States
694,Genuine Bike Shop,Main Office,7760 N. Pan Am Expwy,null,San Antonio,Texas,78204,United States
444,Fourth Bike Store,Main Office,77993 Mentor Ave.,null,Mentor,Ohio,44060,United States
440,Juvenile Sports Equipment,Main Office,78025 E. Mercy Island Cswy,null,Merritt Island,Florida,32952,United States
516,Initial Bike Company,Main Office,789 West Alameda,null,Westminster,Colorado,80030,United States
394,Blue-Ribbon Bike Company,Main Office,790 Shelbyville Road,null,Saint Matthews,Kentucky,40207,United States
1028,Progressive Sports,Shipping,7943 Walnut Ave,null,Renton,Washington,98055,United States
1174,Sure & Reliable Sporting Goods,Main Office,7990 Ocean Beach Hwy.,null,Longview,Washington,98632,United States
1024,Exemplary Cycles,Main Office,79945 Corporate Center Drive,null,Miami,Florida,33127,United States
932,Modular Cycle Systems,Main Office,800 Interchange Blvd.,Suite 2501,Austin,Texas,78701,United States
476,Industrial Supplies,Main Office,825 Coral Way,null,Miami,Florida,33127,United States
1048,Countryside Company,Main Office,825 W 500 S,null,Bountiful,Utah,84010,United States
354,Acclaimed Bicycle Company,Main Office,830 Highway 499 So,null,Mcdonough,Georgia,30253,United States
1194,Variety Bike Outlet,Main Office,83995 South Dixie Highway,null,Miami,Florida,33127,United States
564,Unusual Bicycle Company,Main Office,85 Egerton Street,null,Silverwater,New South Wales,2264,Australia
1030,Underglaze and Finish Company,Main Office,8520 University City Blvd,null,Charlotte,North Carolina,28202,United States
734,Superlative Bikes,Main Office,8525 Nw 17th St.,null,Miami,Florida,33127,United States
1900,Fun Times Club,Main Office,8525 South Parker Road,null,Parker,Colorado,80138,United States
1332,Catalog Store,Main Office,855 East Main Avenue,null,Zeeland,Michigan,49464,United States
1404,Rally Master Company Inc,Main Office,870 N. 54th Ave.,null,Chandler,Arizona,85225,United States
1470,All Cycle Shop,Shipping,8713 Yosemite Ct.,null,Bothell,Washington,98011,United States
1954,Recreation Supplies,Main Office,8789 S.W. 2517 Ave.,null,Kendall,Florida,33143,United States
1962,Metropolitan Equipment,Main Office,"88, avenue de l´ Union Centrale",null,Paris,Seine (Paris),75012,France
548,Eastside Sporting Goods,Main Office,89950 Castleton Corner,null,Indianapolis,Indiana,46204,United States
1334,Chic Department Stores,Main Office,90025 Sterling St,null,Irving,Texas,75061,United States
1210,Pretty Bikes and Toys,Main Office,"9005, rue des Bouchers",null,Paris,Seine (Paris),75005,France
1320,Security Racks and Locks Wholesalers,Main Office,910 Main Street.,null,Sparks,Nevada,89431,United States
1330,Elite Bikes,Shipping,9178 Jumping St.,null,Dallas,Texas,75201,United States
1204,Racing Toys,Shipping,9228 Via Del Sol,null,Phoenix,Arizona,85004,United States
1132,General Industries,Main Office,9259 - 1110th Avenue Sw,null,Calgary,Alberta,T2P 2G8,Canada
432,Bulk Discount Store,Main Office,"93-2501, Blackfriars Road,",null,London,England,SE1 8HL,United Kingdom
1966,Convenient Sales and Service,Main Office,950 Gateway Street,null,Springfield,Oregon,97477,United States
1870,Big Cycle Mall,Main Office,9500b E. Central Texas Expressway,null,Killeen,Texas,76541,United States
1158,Paints and Solvents Company,Main Office,955 E. County Line Rd.,null,Englewood,Colorado,80110,United States
1166,Home Town Bike Store,Main Office,955 Green Valley Crescent,null,Ottawa,Ontario,K4B 1S1,Canada
414,Lubricant and Grease Suppliers,Main Office,956k North Wesleyan Blvd.,null,Rocky Mount,North Carolina,27803,United States
970,Primary Bike Distributors,Main Office,965 De La Gauchetiere West,null,Montreal,Quebec,H1Y 2H8,Canada
1200,General Supplies,Main Office,9693 Louis H Lafontaine,null,Ville De'anjou,Quebec,J1G 2R3,Canada
978,Commercial Sporting Goods,Main Office,9700 Sisk Road,null,Modesto,California,95354,United States
616,Tread Industries,Shipping,9707 Coldwater Drive,null,Orlando,Florida,32804,United States
1852,Top Bike Market,Main Office,975 Princess Street,null,Kingston,Ontario,7L,Canada
1408,Sports Products Store,Main Office,"98, rue de Terre Neuve",null,Lieusaint,Seine et Marne,77127,France
1486,Rural Mountain Bike Mart,Main Office,"98, rue Montcalm",null,Paris,Seine (Paris),75019,France
1310,Unified Sports Company,Main Office,9876 Fruitville Rd,null,Sarasota,Florida,34236,United States
796,Rich Department Store,Main Office,99 - 6 Orion Road,null,Lane Cove,New South Wales,1597,Australia
1386,Authentic Sales and Service,Main Office,"99 Dean Street, Soho",null,London,England,W1V 5RN,United Kingdom
994,Incomparable Bicycle Store,Main Office,99 Edgewater Drive,null,Norwood,Massachusetts,02062,United States
1126,Hardware Components,Shipping,99 Front Street,null,Minneapolis,Minnesota,55402,United States
1882,Red Bicycle Company,Main Office,"99, Rue Saint-pierre",null,Pnot-Rouge,Quebec,J1E 2T7,Canada
1162,Bikes for Kids and Adults,Main Office,9900 Ronson Drive,null,Etobicoke,Ontario,M9W 3P3,Canada
816,Farthermost Bike Shop,Main Office,99000 S. Avalon Blvd. Suite 750,null,Carson,California,90746,United States
1430,Leather Seat Factory,Main Office,"9900-6400 Boul, Taschereau",null,Brossard,Quebec,J4Z 1R4,Canada
496,Grease and Oil Products Company,Main Office,9903 Highway 6 South,null,Houston,Texas,77003,United States
652,Westside Plaza,Main Office,99040 California Avenue,null,Sand City,California,93955,United States
1388,Official Parts Shop,Main Office,9905 Three Rivers Drive,null,Kelso,Washington,98626,United States
958,Big-Time Bike Store,Main Office,9909 W. Ventura Boulevard,null,Camarillo,California,93010,United States
1044,Superb Sales and Repair,Main Office,990th Floor 700 De La GauchetiSre Ou,null,Montreal,Quebec,H1Y 2H3,Canada
1322,Rapid Bikes,Main Office,992 St Clair Ave East,null,Toronto,Ontario,M4B 1V7,Canada
1850,Wheel Gallery,Main Office,9920 Bridgepointe Parkway,null,San Mateo,California,94404,United States
686,Full-Service Bike Store,Main Office,9920 North Telegraph Rd.,null,Pontiac,Michigan,48342,United States
1018,Trusted Catalog Store,Main Office,9920 Picketts Line Road,null,Newport News,Virginia,23607,United States
1434,Endurance Bikes,Main Office,99200 Dixwell Ave.,null,Hamden,Connecticut,06518,United States
448,Traction Tire Company,Main Office,99235 Hawthorne Blvd.,null,Torrance,California,90505,United States
1032,Brakes and Gears,Main Office,9927 N. Main St.,null,Tooele,Utah,84074,United States
838,Stock Parts and Supplies,Main Office,99295 S.e. Tualatin Valley_hwy.,null,Hillsboro,Oregon,97123,United States
534,Prosperous Tours,Main Office,99-3 Forest Works,null,London,England,E17 6JF,United Kingdom
430,Center Cycle Shop,Main Office,99300 223rd Southeast,null,Bothell,Washington,98011,United States
1064,Retread Tire Company,Main Office,9935 Robert C Daniel Jr Parkway,null,Augusta,Georgia,30901,United States
818,Suburban Cycle Shop,Main Office,994 Sw Cherry Park Rd,null,Troutdale,Oregon,97060,United States
672,Good Bike Shop,Main Office,99433 S. Greenbay Rd.,null,Racine,Wisconsin,53182,United States
976,Genial Bike Associates,Main Office,99450 Highway 59 North,null,Humble,Texas,77338,United States
566,Courteous Bicycle Specialists,Main Office,995 Crescent,null,Richmond Hill,Ontario,L4E 3M5,Canada
828,Vigorous Exercise Company,Main Office,"9950 Ferrand Drive, 9th Floor",null,Toronto,Ontario,M4B 1V4,Canada
1414,Bike Dealers Association,Main Office,9952 E. Lohman Ave.,null,Las Cruces,New Mexico,88001,United States
1378,Selected Distributors,Main Office,99535 Dallas Highway,null,Marietta,Georgia,30060,United States
1940,Fasteners & Bolts Outlet,Main Office,9960 King Street E.,null,Toronto,Ontario,M4B 1V5,Canada
1878,Immediate Repair Shop,Main Office,9963 Tresser Blvd.,null,Stamford,Connecticut,06901,United States
1092,Good Toys,Main Office,99700 Bell Road,null,Auburn,California,95603,United States
452,Field Trip Inc,Main Office,997000 Telegraph Rd.,null,Southfield,Michigan,48034,United States
544,Painters Bicycle Specialists,Main Office,9975 Union St.,null,Waterbury,Connecticut,06710,United States
948,Standard Bikes,Main Office,9979 Bayview Drive,null,Barrie,Ontario,L4N,Canada
1802,Cycling Goods,Main Office,997b Tradescant Road,null,London,England,SW8 1XD,United Kingdom
360,Novelty Bikes,Main Office,998 Forest Road,null,Saginaw,Michigan,48601,United States
1824,Major Sporting Goods,Main Office,9980 S Alma School Road,null,Chandler,Arizona,85225,United States
746,Grand Sport Boutique,Main Office,99800 Tittabawasee Rd.,null,Saginaw,Michigan,48601,United States
1136,Rental Bikes,Main Office,"99828 Routh Street, Suite 825",null,Dallas,Texas,75201,United States
1394,Tire Exchange,Main Office,9984 Wellington Street,null,Ottawa,Ontario,K4B 1S2,Canada
752,Elemental Sporting Goods,Main Office,99842 White Mill East,null,Decatur,Georgia,30030,United States
1816,Famous Bike Shop,Main Office,999 West Georgia St.,null,Vancouver,Ontario,V5T 1Y9,Canada
1336,Eastside Department Store,Main Office,9992 Whipple Rd,null,Union City,California,94587,United States
952,Active Systems,Main Office,9995 West Central Entrance,null,Duluth,Minnesota,55802,United States
1928,Quick Parts and Service,Main Office,"99954 Boul. Laurier, Local 060, Place",null,Sainte-Foy,Quebec,G1W,Canada
1248,Glossy Bikes,Main Office,Adirondack Factory Outlet,null,Lake George,New York,12845,United States
876,Versatile Sporting Goods Company,Main Office,Alderstr 1849,null,Braunschweig,Nordrhein-Westfalen,38001,Germany
1190,Mechanical Brake Manufacturers,Main Office,Alte Landstr 776,null,München,Hamburg,80074,Germany
736,Primary Cycle Shop,Main Office,Am Grossen Dern 982,null,Hamburg,Hamburg,20354,Germany
606,Speedometer Sales,Main Office,Am Karlshof 8200,null,Hamburg,Hessen,22001,Germany
424,Bikes Anyone?,Main Office,Ames Plaza,null,Saugus,Massachusetts,01906,United States
1036,Mountain Bike Store,Main Office,Amity Plaza,null,New Haven,Connecticut,06510,United States
570,Professional Cycle Store,Main Office,Arcadia Crossing,null,Phoenix,Arizona,85004,United States
1356,Larger Cycle Shop,Main Office,Attn: Accounts Payable,44 Main Place,Melville,New York,11747,United States
646,Rural Sporting Goods,Main Office,Auf der Krone 53,null,Bonn,Nordrhein-Westfalen,53131,Germany
1926,Fitness Toys,Main Office,Auf Der Steige 1000,null,Berlin,Hamburg,14111,Germany
532,North Bike Company,Main Office,Auf Der Steige 29,null,Muehlheim,Hamburg,63151,Germany
658,Vigorous Sports Store,Main Office,Banbury,null,Oxon,England,OX16 8RS,United Kingdom
1240,Daring Rides,Main Office,Bay Area Outlet Mall,null,Clearwater,Florida,33755,United States
912,Retail Cycle Shop,Main Office,Bayshore Mall,null,Eureka,California,95501,United States
368,Brightwork Company,Main Office,Belz Factory Outlet,null,Las Vegas,Nevada,89106,United States
1898,Valuable Bike Parts Company,Main Office,Belz Factory Outlet,null,Orlando,Florida,32804,United States
334,Global Plaza,Main Office,Belz Factory Outlet,null,Pigeon Forge,Tennessee,37863,United States
770,Best Cycle Store,Main Office,Berliner Platz 45,null,Offenbach,Saarland,63009,Germany
522,Raw Materials Inc,Main Office,Bldg. 9n/99298,null,Redmond,Washington,98052,United States
308,Valley Bicycle Specialists,Main Office,Blue Ridge Mall,null,Kansas City,Missouri,64106,United States
768,Citywide Service and Repair,Main Office,Box 99354 300 Union Street,null,Saint John,Brunswick,E2P 1E3,Canada
1326,Nearby Sporting Goods,Main Office,Bradford,null,W. York,England,BD1 4SJ,United Kingdom
810,Rampart Amusement Company,Main Office,Bradford,"Raven House, Kingsgate",W. York,England,BD1 4SJ,United Kingdom
538,Amalgamated Parts Shop,Main Office,Brunnenstr 422,null,Frankfurt am Main,Hamburg,60082,Germany
1250,Next Door Cycles,Main Office,Brunnenstr 9511,null,Berlin,Saarland,14197,Germany
1450,Guaranteed Sales and Service,Main Office,Buckeye Factory Shops,null,Burbank,Ohio,44214,United States
1076,Rustic Bike Store,Main Office,Buergermeister-ulrich-str 3000,Buchhaltung,Augsburg,Bayern,86150,Germany
420,Capital Riding Supplies,Main Office,Buergermeister-ulrich-str 9500,null,Augsburg,Hamburg,86171,Germany
996,Hometown Riding Supplies,Main Office,Bundesallee 9571,Rechnungsstelle - C 035,Berlin,Brandenburg,14197,Germany
1106,The Commissary,Main Office,"Bureau 9900 825, Avenue Querbes",null,Outremont,Quebec,H1Y 2G5,Canada
1984,Nearby Cycle Shop,Main Office,Burgess Hill,Edward Way,West Sussex,England,RH15 9UD,United Kingdom
1410,Exclusive Bicycle Mart,Main Office,"Butterfield Hse, 7-251 Chapel St",null,Lancaster,England,LA1 1LN,United Kingdom
710,Wonderful Bikes Inc.,Main Office,C/O Arrow Electronics,null,Memphis,Tennessee,38103,United States
1266,Reasonable Bicycle Sales,Main Office,"C/O Starpak, Inc.",null,Greeley,Colorado,80631,United States
460,Pro Sporting Goods,Main Office,Camarillo Athletic Stores,null,Camarillo,California,93010,United States
1164,Consolidated Sales,Main Office,Carolina Factory Shops,null,Gaffney,South Carolina,29340,United States
1094,Little Bicycle Supply Shop,Main Office,Cedar Creek Stores,null,Mosinee,Wisconsin,54455,United States
718,First Supplies,Main Office,Chabbell Park,null,North Ryde,New South Wales,2113,Australia
878,Bicycle Outfitters,Main Office,Cherry Grove Plaza,null,Cincinnati,Ohio,45202,United States
1126,Hardware Components,Main Office,City Center,null,Minneapolis,Minnesota,55402,United States
378,Pedaling Components,Main Office,Conesweg 49,null,Kiel,Saarland,24044,Germany
832,Lease-a-Bike Shop,Main Office,Connecticut Post Mall,null,Milford,Connecticut,06460,United States
1462,Small Bike Accessories Shop,Main Office,Consumer Square,null,Cheektowaga,New York,14227,United States
1066,Small Bike Shop,Main Office,Corp Ofc Accts Payable,null,El Segundo,California,90245,United States
798,Sales and Supply Company,Main Office,Corporate Ofc A/p,123 Fourth Ave,Chantilly,Virginia,20151,United States
492,Coalition Bike Company,Main Office,Corporate Office,null,El Segundo,California,90245,United States
788,Paint Supply,Main Office,Corporate Office,null,Garland,Texas,75040,United States
1342,Global Sports Outlet,Main Office,Ctrcrt Bus Pk/995-27 Paul St N,null,Lavender Bay,New South Wales,2060,Australia
408,Nearest Bike Store,Main Office,Ctrcrt Bus Pk/995-27 Paul St N,null,North Ryde,New South Wales,2113,Australia
1096,Retail Toy Store,Main Office,"Dadeland Mall, Space 25090",null,Miami,Florida,33127,United States
1070,Fitness Sport Boutique,Main Office,Dansk Square,null,Kittery,Maine,03904,United States
1896,Tenth Bike Store,Main Office,Depot 80,null,Sillery,Quebec,G1T,Canada
480,Front Runner Bikes,Main Office,DeSouth Square,null,Bradenton,Florida,34205,United States
388,Remarkable Bike Store,Main Office,Eastern Beltway Center,null,Las Vegas,Nevada,89106,United States
318,Great Bikes ,Main Office,Eastridge Mall,null,Casper,Wyoming,82601,United States
698,Bike Rims Company,Main Office,Edgewater Mall,null,Biloxi,Mississippi,39530,United States
602,Uttermost Bike Shop,Main Office,Ellesfield Ave,null,Bracknell,England,RG12 8TB,United Kingdom
944,Number One Bike Co.,Main Office,"Elmhurst Road, Goring",null,Reading,England,RG7 5H7,United Kingdom
830,Showcase for Cycles,Main Office,Erftplatz 22,null,Sulzbach Taunus,Saarland,66272,Germany
474,Number 1 Supply,Main Office,Escondido,null,Escondido,California,92025,United States
754,Distinctive Store,Main Office,Factory Merchants,null,Barstow,California,92311,United States
1806,Black Bicycle Company,Main Office,Factory Merchants,null,Branson,Missouri,65616,United States
366,Activity Center,Main Office,Factory Stores Of America,null,Crossville,Tennessee,38555,United States
862,Retail Sporting Equipment,Main Office,Factory Stores Of America,null,Mesa,Arizona,85201,United States
1902,Chain and Chain Tool Distributions,Main Office,Factory Stores Of America,null,Smithfield,North Carolina,27577,United States
850,Regional Manufacturing,Main Office,Factory Stores/tucson,null,Tucson,Arizona,85701,United States
1390,"Contoso, Ltd.",Main Office,Fiesta Trail Shopping Center,null,San Antonio,Texas,78204,United States
342,Mountain Toy Store,Main Office,First Colony Mall,null,Sugar Land,Texas,77478,United States
326,Worthwhile Activity Store,Main Office,Flagler Park Plaza,null,Miami,Florida,33127,United States
654,Ultimate Bike Shop,Main Office,Foothills Mall,null,Maryville,Tennessee,37801,United States
462,Sporting Goods and Bicycle Shop,Main Office,Fort Henry Mall,null,Kingsport,Tennessee,37660,United States
486,Global Sporting Goods,Main Office,Fountains On The Lake,null,Stafford,Texas,77477,United States
370,Resale Services,Main Office,Fox Hills,null,Culver City,California,90232,United States
1438,Some Discount Store,Main Office,Frontier Mall,null,Cheyenne,Wyoming,82001,United States
352,Tiny Bike Boutique,Main Office,Fsa Outlet Center,null,Nashville,Tennessee,37203,United States
984,Riding Cycles,Main Office,Galashiels,null,Liverpool,England,L4 4HB,United Kingdom
1302,Exhibition Showroom,Main Office,"Garamonde Drive, Wymbush",P.O. Box 803,Milton Keynes,England,MK8 8ZD,United Kingdom
1260,Closest Bicycle Store,Main Office,"Garamonde Drive, Wymbush",PO Box 4023,Milton Keynes,England,MK8 8ZD,United Kingdom
992,Latest Accessories Sales,Main Office,Gateway,null,Portland,Oregon,97205,United States
364,Leading Bike Distributors,Main Office,Grand Central Place,null,Somerset,Kentucky,42501,United States
320,Metropolitan Sales and Rental,Main Office,Granite State Marketplace,null,Hooksett,New Hampshire,03106,United States
576,Independent Outlet,Main Office,Great Northern Mall Hwy4 & Rt. 31,null,Clay,New York,13041,United States
1270,Outdoor Sports Supply,Main Office,Great Northwestern,null,North Bend,Washington,98045,United States
1052,Traditional Department Stores,Main Office,Green Acres Mall,null,Valley Stream,New York,11580,United States
340,eCommerce Bikes,Main Office,Gulfport Factory Shops,null,Gulfport,Mississippi,39501,United States
416,Teen Discount Store,Main Office,Haberstr 29,null,Bonn,Hamburg,53131,Germany
966,The New Bike Store,Main Office,Hanford Mall,null,Hanford,California,93230,United States
582,Excellent Bikes,Main Office,Hans-Rosenthal-Platz 4223,null,Grevenbroich,Bayern,41485,Germany
636,Bicycle Exporters,Main Office,Hellweg 4934,null,Essen,Hamburg,45001,Germany
1974,Links Works,Main Office,Helsenbergbogen 6,null,Ascheim,Hamburg,86171,Germany
1922,A Cycle Shop,Main Office,Heritage Mall,null,Albany,Oregon,97321,United States
568,Hobby Store,Main Office,Highland Lakes Shopping Ctr.,null,Orlando,Florida,32804,United States
310,New Bikes Company,Main Office,Hilton Head Factory Outlets No. 25,null,Bluffton,South Carolina,29910,United States
536,Nonskid Tire Company,Main Office,Holiday Village Mall,null,Great Falls,Montana,59401,United States
748,Major Equipment Co,Main Office,Holzstr 6444,null,Salzgitter,Hessen,38231,Germany
1436,Practical Bike Supply Company,Main Office,Horizon Outlet,null,Woodbury,Minnesota,55125,United States
392,Small Cycle Store,Main Office,Horizon Outlet Center,null,Holland,Michigan,49423,United States
916,Blue Bicycle Company,Main Office,Horizon Outlet Center,null,Monroe,Michigan,98272,United States
1456,Sunny Place Bikes,Main Office,Horizon Outlet Center,null,Vero Beach,Florida,32960,United States
790,Preferred Bikes,Main Office,Incom Sports Center,null,Ontario,California,91764,United States
836,Active Cycling,Main Office,Indian Mound Mall,null,Heath,Ohio,43056,United States
692,Grand Discount Store,Main Office,Indiana Factory Shops,null,Daleville,Indiana,47334,United States
1960,Sports Store,Main Office,"Internet House, 3399 Science Park",null,Cambridge,England,CB4 4BZ,United Kingdom
298,The Bike Mechanics,Main Office,Johnny Appleseed Shop.center,null,Mansfield,Ohio,44903,United States
1448,Friendly Neighborhood Bikes,Main Office,Johnson Creek,null,Johnson Creek,Wisconsin,53038,United States
1050,First Bike Store,Main Office,Kansas City Factory Outlet,null,Odessa,Missouri,64076,United States
1020,Bicycle Warehouse Inc.,Main Office,Karl Liebknecht str 299,null,Frankfurt am Main,Saarland,60075,Germany
1906,Regional Cycle Shop,Main Office,Karl Liebknecht str 399,Leiter der Abteilung,Berlin,Hessen,14111,Germany
1976,Exhilarating Cycles,Main Office,Kensington Valley Shops,null,Howell,Michigan,48843,United States
314,Top of the Line Bikes,Main Office,Knaackstr 7,null,Paderborn,Hamburg,33041,Germany
588,Channel Outlet,Main Office,Knaves Beech Ind.,null,High Wycombe,England,HP10 9QY,United Kingdom
1088,Fast Services,Main Office,Königsteiner Straße 449,null,Leipzig,Nordrhein-Westfalen,04139,Germany
1420,Global Bike Retailers,Main Office,Königsteiner Straße 9,null,Bad Soden,Hessen,65800,Germany
1160,West Wind Distributors,Main Office,Krönerweg 9249,null,Hannover,Nordrhein-Westfalen,30601,Germany
1178,Enterprise Center,Main Office,Kurfürstenstr 574,null,München,Hessen,80074,Germany
888,Lustrous Paints and Components,Main Office,Kurfürstenstr 74,null,Poing,Saarland,66041,Germany
730,Very Best Sports Supply,Main Office,Kurfürstenstr 9,null,Duesseldorf,Hessen,40605,Germany
1108,Affordable Sports Equipment,Main Office,Lake Elisnor Place,null,Lake Elsinore,California,92530,United States
344,Retail Sales and Service,Main Office,Lake Region Factory Outlet,null,Tilton,New Hampshire,03276,United States
902,Cash & Carry Bikes,Main Office,Lakeline Mall,null,Cedar Park,Texas,78613,United States
614,Outdoor Sporting Goods,Main Office,Lakewood Mall,null,Lakewood,California,90712,United States
1834,Bike Experts,Main Office,Lancaster Mall,null,Salem,Oregon,97301,United States
306,Clamps & Brackets Co.,Main Office,Leesburg Premium Outlet Centre,null,Leesburg,Virginia,20176,United States
410,Fast Bike Works,Main Office,Level 100,77 Southbank Boulevard,South Melbourne,Victoria,3205,Australia
1452,Preferable Bikes,Main Office,Level 25,538 Climbing Street,Rhodes,New South Wales,2138,Australia
1464,List Price Catalog Company,Main Office,Level 25,96 Lytton Rd.,Melbourne,Victoria,3000,Australia
1366,Sensible Sports,Main Office,Level 5,157 Liverpool Street,Rhodes,New South Wales,2138,Australia
1058,Mass Market Bikes,Main Office,Level 59,null,Alexandria,New South Wales,2015,Australia
972,Major Bicycle Store,Main Office,Level 6,538 Climbing Street,Matraville,New South Wales,2036,Australia
906,Fitness Bike Accessories,Main Office,Level 7,114 Albert Road,Rhodes,New South Wales,2138,Australia
1818,Eastward Bike Accessories,Main Office,Level 7,201 Sussex Street,Matraville,New South Wales,2036,Australia
1042,Popular Bike Lines,Main Office,Level 7,80 Arthur Street,Newcastle,New South Wales,2300,Australia
1938,Cycle Parts and Accessories,Main Office,Level 99,12 South 10th Avenue,Melbourne,Victoria,3000,Australia
666,Fitness Discount Store,Main Office,Level 992,56 Pitt Street,Melbourne,Victoria,3000,Australia
870,Vast Bike Sales and Rental,Main Office,Lewis County Mall,null,Chehalis,Washington,98532,United States
304,Bicycle Accessories and Kits,Main Office,Lewiston Mall,null,Lewiston,Idaho,83501,United States
1950,Helpful Sales and Repair Service ,Main Office,Licensing Account,null,Seaford,Victoria,3198,Australia
1968,Solid Bike Parts,Main Office,Lincoln Square,null,Arlington,Texas,76010,United States
1074,Recreation Systems,Main Office,Logansport Mall,null,Logansport,Indiana,46947,United States
1812,Maintenance and Repair for Bicycles,Main Office,Lone Star Factory,null,La Marque,Texas,77568,United States
292,Next-Door Bike Store,Main Office,Mall Of Memphis,null,Memphis,Tennessee,38103,United States
1956,Wire Baskets and Parts,Main Office,Mall Of Orange,null,Orange,California,92867,United States
1120,Rural Sales and Service,Main Office,Management Mall,null,San Antonio,Texas,78204,United States
898,Tough and Reliable Parts,Main Office,Market Square Shopping Center,null,Lakeland,Florida,33801,United States
858,Roadway Bike Emporium,Main Office,Medford,null,Medford,Oregon,97504,United States
1034,The Accessories Store,Main Office,Medford Outlet Center,null,Medford,Minnesota,55049,United States
776,Principal Bike Company,Main Office,Mountain Square,null,Upland,California,91786,United States
1944,Quantity Discounts,Main Office,Natomas Marketplace,null,Sacramento,California,95814,United States
1868,Executive Gift Store,Main Office,New Castle Plaza,null,New Castle,Indiana,47362,United States
1484,Essential Bike Works,Main Office,"New Millhouse, 2583 Milton Park",null,Abingdon,England,OX14 4SE,United Kingdom
1468,Village Tours,Main Office,Newport Shopping Center,null,Newport,Kentucky,41071,United States
1444,Remote Bicycle Specialists,Main Office,No. 2000-25080 Beaver Hall Hill,null,Quebec,Quebec,G1R,Canada
1236,Twelfth Bike Store,Main Office,No. 25400 10665 Jasper Avenue,null,Edmonton,Alberta,T5,Canada
312,Vinyl and Plastic Goods Corporation,Main Office,No. 25800-130 King Street West,null,Toronto,Ontario,M4B 1V5,Canada
1370,Liquidation Sales,Main Office,No. 6,Millenium Court,Perth,South Australia,6006,Australia
1084,Running and Cycling Gear,Main Office,No. 60 Bellis Fair Parkway,null,Bellingham,Washington,98225,United States
546,Client Discount Store,Main Office,Noah Lane,null,Chicago,Illinois,60610,United States
758,Nearby Bike Mall,Main Office,Nonnendamm 63,null,Berlin,Nordrhein-Westfalen,14197,Germany
656,Outstanding Cycles,Main Office,North 93270 Newport Highway,null,Spokane,Washington,99202,United States
396,Flawless Bike Shop,Main Office,North County Square,null,Vista,California,92084,United States
400,Exertion Activities Club,Main Office,Norwalk Square,null,Norwalk,California,90650,United States
572,Bike Universe,Main Office,Nut Tree Factory,null,Vacaville,California,95688,United States
1100,All Seasons Sports Supply,Main Office,Ohms Road,null,Houston,Texas,77003,United States
1934,A Typical Bike Shop,Main Office,"One Dancing, Rr No. 25",Box 8033,Round Rock,Texas,78664,United States
554,Racks and Security Systems,Main Office,One Equinox Way,null,Sunrise,Florida,33322,United States
1990,Technical Parts Manufacturing,Main Office,Ontario Mills,null,Ontario,California,91764,United States
918,Expert Cycle Store,Main Office,Orwith Center,39 Herbert Street,St. Leonards,New South Wales,2065,Australia
1932,Thrifty Parts and Sales,Main Office,Oxnard Outlet,null,Oxnard,California,93030,United States
1854,Region Bike Company,Main Office,P O Box 72569,null,East Brisbane,Queensland,4169,Australia
608,Two-Wheeled Transit Company,Main Office,P.O. Box 44000,null,Winnipeg,Manitoba,R3,Canada
1318,Town Industries,Main Office,P.O. Box 6256916,null,Dallas,Texas,75201,United States
716,Famous Bike Sales and Service,Main Office,P.O. Box 9005,null,Endicott,New York,13760,United States
358,Quality Bike Sales,Main Office,P.O. Box 990032,null,Findon,South Australia,5023,Australia
1214,Sturdy Toys,Main Office,Pacific West Outlet,null,Gilroy,California,95020,United States
322,Irregulars Outlet,Main Office,Pappelallee 19,null,Dresden,Hessen,01071,Germany
1844,Metropolitan Bicycle Supply,Main Office,Paramount House,null,London,England,W1N 9FA,United Kingdom
1398,Oils and Fluids Warehouse,Main Office,"Park House-4th Floor, 2516 Park St.",null,London,England,W1Y 3RA,United Kingdom
650,Distance Bikes,Main Office,Park North Business Center,null,Clarkston,Georgia,30021,United States
1862,Racing Association,Main Office,Parkway City Mall,null,Huntsville,Alabama,35801,United States
1478,Metropolitan Manufacturing,Main Office,Parkway Plaza,null,El Cajon,California,92020,United States
742,Vehicle Shop,Main Office,Pavillion @ Redlands,null,Redlands,California,92373,United States
1460,Cycles and Scooters,Main Office,Peach Festival Outlet,null,Byron,Georgia,31008,United States
1202,Noiseless Gear Company,Main Office,Peachtree Mall,null,Columbus,Georgia,31901,United States
1284,Instruments and Parts Company,Main Office,"Phoenix Way, Cirencester",null,Gloucestershire,England,GL7 1RY,United Kingdom
988,Manufacturers Inc,Main Office,Po Box 08050,null,Nashville,Tennessee,37203,United States
1362,Metro Bike Mart,Main Office,Po Box 2257,null,Greensboro,North Carolina,27412,United States
1376,Sports Products Store,Main Office,Po Box 252525,null,Santa Ana,California,92701,United States
426,Cross-town Parts Shop,Main Office,Po Box 25484,null,Springwood,New South Wales,2777,Australia
450,Unsurpassed Bikes,Main Office,Po Box 8035996,null,Dallas,Texas,75201,United States
1330,Elite Bikes,Main Office,Po Box 8259024,null,Dallas,Texas,75201,United States
708,South Bike Company,Main Office,Po Box 83270,null,Vancouver,British Columbia,V7L 4J4,Canada
422,Bike Boutique,Main Office,Polaris Town Center,null,Columbus,Ohio,43215,United States
1372,Friendly Bike Shop,Main Office,Port Huron,null,Port Huron,Michigan,48060,United States
1880,Off-Price Bike Center,Main Office,Postfach 11 09 00,null,Berlin,Hessen,14111,Germany
1072,Producer Goods Clearinghouse,Main Office,Postfach 55 00 00,null,Frankfurt,Bayern,91480,Germany
1204,Racing Toys,Main Office,Prime Outlets,null,Phoenix,Arizona,85004,United States
1820,Strong Metal Manufacturing,Main Office,Pyramid Mall,null,Ithaca,New York,14850,United States
1278,Many Bikes Store,Main Office,Receiving,null,Fullerton,California,92831,United States
488,Historic Bicycle Sales,Main Office,Redford Plaza,null,Redford,Michigan,48239,United States
1924,Bike Products and Accessories,Main Office,Regency Hilltop Shopping Cntr,null,Virginia Beach,Virginia,23451,United States
872,Summer Sports Place,Main Office,Ring Plaza,null,Norridge,Illinois,60706,United States
696,Extreme Riding Supplies,Main Office,Riverside,null,Sherman Oaks,California,91403,United States
348,Bold Bike Accessories,Main Office,Rocky Mountain Pines Outlet,null,Loveland,Colorado,80537,United States
550,Helmets and Cycles,Main Office,Rosebery,null,Lavender Bay,New South Wales,2060,Australia
1008,Precision Gears Inc.,Main Office,Roßstr 2248,null,Stuttgart,Saarland,70511,Germany
1198,"Fabrikam Inc., East",Main Office,Roßstr 9938,Verkaufsabteilung,Eilenburg,Brandenburg,04838,Germany
578,Rambling Tours,Main Office,Rotthäuser Weg 511,null,Stuttgart,Saarland,70511,Germany
600,Thorough Parts and Repair Services,Main Office,S Sound Ctr Suite 25300,null,Lacey,Washington,98503,United States
520,Modern Bike Store,Main Office,Saltonstall Parkway,null,East Haven,Connecticut,06512,United States
1860,Sparkling Paint and Finishes,Main Office,San Diego Factory,null,San Ysidro,California,92173,United States
800,Stationary Bikes and Stands,Main Office,Sapp Road West,null,Round Rock,Texas,78664,United States
884,Qualified Sales and Repair Services,Main Office,Savannah Festival Outlet,null,Savannah,Georgia,31401,United States
940,Cycles Wholesaler & Mfg.,Main Office,"Science Park South, Birchwood",Stanford House,Warrington,England,WA3 7BH,United Kingdom
1918,Simple Bike Parts,Main Office,Silver Sands Factory Outlet,null,Destin,Florida,32541,United States
1134,Highway Bike Shop,Main Office,Simi @ The Plaza,null,Simi Valley,California,93065,United States
390,Road-Way Mart,Main Office,Southgate Mall,null,Missoula,Montana,59801,United States
1848,Designer Department Stores,Main Office,Southwest Outlet,null,Hillsboro,Texas,76645,United States
764,Fashionable Bikes and Accessories,Main Office,Sports Store At Park City,null,Park City,Utah,84098,United States
1822,Gift and Toy Store,Main Office,Sports Stores @ Tuscola,null,Tuscola,Illinois,61953,United States
890,Expert Sports Store,Main Office,Spring Meadows Place,null,Holland,Ohio,43528,United States
1374,Yellow Bicycle Company,Main Office,St. Louis Marketplace,null,Saint Louis,Missouri,63103,United States
1086,Seventh Bike Store,Main Office,Stateline Plaza,null,Plaistow,New Hampshire,03865,United States
1010,Cross-Country Riding Supplies,Main Office,Station E,null,Chalk Riber,Ontario,K0J 1J0,Canada
1978,Exercise Center,Main Office,Stevens Creek Shopping Center,null,San Jose,California,95112,United States
470,"Unicycles, Bicycles, and Tricycles",Main Office,Stonewood Mall,null,Downey,California,90241,United States
1908,Rural Bicycle Supply,Main Office,Suite #9902,null,North York,Ontario,M4C 4K6,Canada
1988,Retreat Inn,Main Office,Suite 2502 410 Albert Street,null,Waterloo,Ontario,N2V,Canada
738,Sixth Bike Store,Main Office,Suite 25800 3401 - 10810th Avenue,null,Surrey,British Columbia,V3T 4W3,Canada
1476,Low Price Cycles,Main Office,Suite 500 995 W. 11th Avenue,null,Mississauga,Ontario,L5A 1H6,Canada
386,Nice Bikes,Main Office,Suite 800 2530 Slater Street,null,Ottawa,Ontario,K4B 1T7,Canada
356,Serious Cycles,Main Office,Suite 99320 255 - 510th Avenue S.W.,null,Calgary,Alberta,T2P 2G8,Canada
296,Riders Company,Main Office,Tanger Factory,null,Branch,Minnesota,55056,United States
376,Extended Bike Sales,Main Office,The Citadel Commerce Plaza,null,City Of Commerce,California,90040,United States
1912,The Cycle Store,Main Office,The Corner Shopping Center,null,Falls Church,Virginia,22046,United States
670,Fitness Cycling,Main Office,The Quad @ WestView,null,Whittier,California,90605,United States
1846,Honest Repair Service,Main Office,Three Rivers Mall,null,Kelso,Washington,98626,United States
1872,Budget Bike Company,Main Office,Tom Morris,null,Millington,Tennessee,38054,United States
1146,Vale Riding Supplies,Main Office,Topanga Plaza,null,Canoga Park,California,91303,United States
1836,Extraordinary Bike Works,Main Office,Town East Center,null,Mesquite,Texas,75149,United States
904,Convenient Bike Shop,Main Office,Tree Plaza,null,Braintree,Massachusetts,02184,United States
362,Distinctive Cycles Sales & Service,Main Office,Turfway Retail Center,null,Florence,Kentucky,41042,United States
1102,Leisure Clearing House,Main Office,Unit 99a Battery Retail Pk,null,Birmingham,England,B29 6SL,United Kingdom
910,Quitting Business Distributors,Main Office,University Plaza,null,Tampa,Florida,33602,United States
1226,Brown Bicycle Company,Main Office,University Town Center,null,San Diego,California,92102,United States
402,Impromptu Trips,Main Office,Valley Mall,null,Union Gap,Washington,98903,United States
1920,Timely Shipping Service,Main Office,Viejas Outlet Center,null,Alpine,California,91901,United States
834,Functional Store South,Main Office,Viktoria-Luise-Platz 475,null,München,Nordrhein-Westfalen,80074,Germany
950,The Bicycle Accessories Company,Main Office,Vista Marketplace,null,Alhambra,California,91801,United States
1152,Exceptional Cycle Services,Main Office,Wade Road,null,Basingstoke Hants,England,RG24 8PL,United Kingdom
1914,Educational Services,Main Office,Wallstr 244,null,Saarbrücken,Saarland,66001,Germany
1904,Mobile Outlet,Main Office,Walnut Hill Plaza,null,Woonsocket,Rhode Island,02895,United States
638,Responsible Bike Dealers,Main Office,Ward Parkway Center,null,Kansas City,Missouri,64106,United States
856,Action Bicycle Specialists,Main Office,Warrington Ldc Unit 25/2,null,Woolston,England,WA1 4SY,United Kingdom
528,Parcel Express Delivery Service,Main Office,Washington Square,null,Portland,Oregon,97205,United States
846,Super Sports Store,Main Office,Washington Square Ii,null,Indianapolis,Indiana,46204,United States
1432,Good Bicycle Store,Main Office,Werftstr 4400,null,Sulzbach Taunus,Saarland,66272,Germany
922,Parts Shop,Main Office,West Georgia Commons,null,La Grange,Georgia,30240,United States
924,Riding Excursions,Main Office,West Park Plaza,null,Irvine,California,92614,United States
664,Casual Bicycle Store,Main Office,Westside Plaza,null,Nashua,New Hampshire,03064,United States
1220,Commerce Bicycle Specialists,Main Office,Wharfdale Road,null,Berkshire,England,RG11 5TP,United Kingdom
330,Major Sport Suppliers,Main Office,White Mountain Mall,null,Rock Springs,Wyoming,82901,United States
446,Rodeway Bike Store,Main Office,Winterfeldtstr 5557,Kreditorenbuchhaltung,Münster,Saarland,48001,Germany
404,Margie's Travel,Main Office,Woodbury Commons,null,Central Valley,New York,10917,United States
328,Purchase Mart,Main Office,Wrentham Village,null,Wrentham,Massachusetts,02093,United States
1472,Tachometers and Accessories,Main Office,Wymbush,null,Milton Keynes,England,MK8 8DF,United Kingdom
